start=new Date('2023-05-19T00:00:00.000Z').valueOf();
sats=[{"TIME_SYSTEM":"UTC","ELEMENT_SET_NO":"999","INCLINATION":"53.2178","OBJECT_NAME":"STARLINK-4484","OBJECT_TYPE":"PAYLOAD","SEMIMAJOR_AXIS":"6917.872","RCS_SIZE":"LARGE","OBJECT_ID":"2022-097AF","MEAN_ANOMALY":"245.8963","MEAN_MOTION_DOT":"0.00000755","REV_AT_EPOCH":"4363","NORAD_CAT_ID":"53417","EPOCH":"2023-05-18T00:47:03.146784","FILE":"3911221","MEAN_MOTION":"15.08842813","ECCENTRICITY":"0.00011470","COUNTRY_CODE":"US","PERIAPSIS":"538.943","DECAY_DATE":null,"CENTER_NAME":"EARTH","REF_FRAME":"TEME","BSTAR":"0.00006551600000","MEAN_MOTION_DDOT":"0.0000000000000","CLASSIFICATION_TYPE":"U","MEAN_ELEMENT_THEORY":"SGP4","GP_ID":"232084650","TLE_LINE1":"1 53417U 22097AF  23138.03267531  .00000755  00000-0  65516-4 0  9998","TLE_LINE2":"2 53417  53.2178  42.9676 0001147 114.2149 245.8963 15.08842813 43630","SITE":"AFETR","EPHEMERIS_TYPE":"0","PERIOD":"95.437","RA_OF_ASC_NODE":"42.9676","APOAPSIS":"540.530","ARG_OF_PERICENTER":"114.2149","LAUNCH_DATE":"2022-08-10"},{"MEAN_ANOMALY":"275.7087","OBJECT_ID":"2022-097AG","MEAN_MOTION_DOT":"0.00000443","REV_AT_EPOCH":"4380","TIME_SYSTEM":"UTC","INCLINATION":"53.2169","ELEMENT_SET_NO":"999","RCS_SIZE":"LARGE","OBJECT_NAME":"STARLINK-4481","SEMIMAJOR_AXIS":"6917.898","OBJECT_TYPE":"PAYLOAD","EPHEMERIS_TYPE":"0","SITE":"AFETR","RA_OF_ASC_NODE":"32.7058","PERIOD":"95.438","GP_ID":"232084900","MEAN_ELEMENT_THEORY":"SGP4","TLE_LINE2":"2 53418  53.2169  32.7058 0001060  84.4026 275.7087 15.08834110 43807","TLE_LINE1":"1 53418U 22097AG  23137.99306616  .00000443  00000-0  45891-4 0  9999","LAUNCH_DATE":"2022-08-10","ARG_OF_PERICENTER":"84.4026","APOAPSIS":"540.497","COUNTRY_CODE":"US","ECCENTRICITY":"0.00010600","EPOCH":"2023-05-17T23:50:00.916224","NORAD_CAT_ID":"53418","MEAN_MOTION":"15.08834110","FILE":"3911221","BSTAR":"0.00004589100000","REF_FRAME":"TEME","CENTER_NAME":"EARTH","MEAN_MOTION_DDOT":"0.0000000000000","CLASSIFICATION_TYPE":"U","DECAY_DATE":null,"PERIAPSIS":"539.030"},{"ELEMENT_SET_NO":"999","INCLINATION":"53.2172","TIME_SYSTEM":"UTC","RCS_SIZE":"LARGE","OBJECT_TYPE":"PAYLOAD","SEMIMAJOR_AXIS":"6917.881","OBJECT_NAME":"STARLINK-4476","MEAN_MOTION_DOT":"-0.00000697","OBJECT_ID":"2022-097AH","MEAN_ANOMALY":"275.4087","REV_AT_EPOCH":"4373","ECCENTRICITY":"0.00013320","COUNTRY_CODE":"US","FILE":"3911388","MEAN_MOTION":"15.08839655","NORAD_CAT_ID":"53419","EPOCH":"2023-05-18T16:35:36.674880","CLASSIFICATION_TYPE":"U","MEAN_MOTION_DDOT":"0.0000000000000","CENTER_NAME":"EARTH","BSTAR":"-0.00002571600000","REF_FRAME":"TEME","PERIAPSIS":"538.825","DECAY_DATE":null,"PERIOD":"95.438","RA_OF_ASC_NODE":"40.0051","SITE":"AFETR","EPHEMERIS_TYPE":"0","TLE_LINE2":"2 53419  53.2172  40.0051 0001332  84.7057 275.4087 15.08839655 43734","TLE_LINE1":"1 53419U 22097AH  23138.69139670 -.00000697  00000-0 -25716-4 0  9999","MEAN_ELEMENT_THEORY":"SGP4","GP_ID":"232115378","LAUNCH_DATE":"2022-08-10","APOAPSIS":"540.668","ARG_OF_PERICENTER":"84.7057"},{"ARG_OF_PERICENTER":"92.0171","APOAPSIS":"540.648","LAUNCH_DATE":"2022-08-10","TLE_LINE2":"2 53420  53.2181  43.0230 0001316  92.0171 268.0972 15.08842495 43635","TLE_LINE1":"1 53420U 22097AJ  23138.01795595  .00001264  00000-0  97486-4 0  9993","GP_ID":"232086402","MEAN_ELEMENT_THEORY":"SGP4","RA_OF_ASC_NODE":"43.0230","PERIOD":"95.437","EPHEMERIS_TYPE":"0","SITE":"AFETR","DECAY_DATE":null,"PERIAPSIS":"538.827","MEAN_MOTION_DDOT":"0.0000000000000","CLASSIFICATION_TYPE":"U","REF_FRAME":"TEME","BSTAR":"0.00009748600000","CENTER_NAME":"EARTH","MEAN_MOTION":"15.08842495","FILE":"3911221","EPOCH":"2023-05-18T00:25:51.394080","NORAD_CAT_ID":"53420","COUNTRY_CODE":"US","ECCENTRICITY":"0.00013160","REV_AT_EPOCH":"4363","MEAN_MOTION_DOT":"0.00001264","OBJECT_ID":"2022-097AJ","MEAN_ANOMALY":"268.0972","SEMIMAJOR_AXIS":"6917.873","OBJECT_TYPE":"PAYLOAD","OBJECT_NAME":"STARLINK-4552","RCS_SIZE":"LARGE","INCLINATION":"53.2181","ELEMENT_SET_NO":"999","TIME_SYSTEM":"UTC"},{"TIME_SYSTEM":"UTC","ELEMENT_SET_NO":"999","INCLINATION":"53.2178","RCS_SIZE":"LARGE","OBJECT_NAME":"STARLINK-4545","OBJECT_TYPE":"PAYLOAD","SEMIMAJOR_AXIS":"6917.886","MEAN_ANOMALY":"268.6507","OBJECT_ID":"2022-097AK","MEAN_MOTION_DOT":"0.00000291","REV_AT_EPOCH":"4373","ECCENTRICITY":"0.00012150","COUNTRY_CODE":"US","NORAD_CAT_ID":"53421","EPOCH":"2023-05-18T16:30:19.040832","FILE":"3911388","MEAN_MOTION":"15.08838093","CENTER_NAME":"EARTH","REF_FRAME":"TEME","BSTAR":"0.00003640000000","CLASSIFICATION_TYPE":"U","MEAN_MOTION_DDOT":"0.0000000000000","PERIAPSIS":"538.911","DECAY_DATE":null,"SITE":"AFETR","EPHEMERIS_TYPE":"0","PERIOD":"95.438","RA_OF_ASC_NODE":"40.0213","MEAN_ELEMENT_THEORY":"SGP4","GP_ID":"232115879","TLE_LINE2":"2 53421  53.2178  40.0213 0001215  91.4625 268.6507 15.08838093 43735","TLE_LINE1":"1 53421U 22097AK  23138.68772038  .00000291  00000-0  36400-4 0  9992","LAUNCH_DATE":"2022-08-10","APOAPSIS":"540.592","ARG_OF_PERICENTER":"91.4625"},{"MEAN_ELEMENT_THEORY":"SGP4","GP_ID":"232116630","TLE_LINE1":"1 53422U 22097AL  23138.73923932  .00001407  00000-0  10647-3 0  9994","TLE_LINE2":"2 53422  53.2170  39.7894 0001216  73.3005 286.8120 15.08841742 43761","SITE":"AFETR","EPHEMERIS_TYPE":"0","PERIOD":"95.437","RA_OF_ASC_NODE":"39.7894","APOAPSIS":"540.581","ARG_OF_PERICENTER":"73.3005","LAUNCH_DATE":"2022-08-10","NORAD_CAT_ID":"53422","EPOCH":"2023-05-18T17:44:30.277248","FILE":"3911388","MEAN_MOTION":"15.08841742","ECCENTRICITY":"0.00012160","COUNTRY_CODE":"US","PERIAPSIS":"538.899","DECAY_DATE":null,"CENTER_NAME":"EARTH","REF_FRAME":"TEME","BSTAR":"0.00010647000000","MEAN_MOTION_DDOT":"0.0000000000000","CLASSIFICATION_TYPE":"U","OBJECT_ID":"2022-097AL","MEAN_ANOMALY":"286.8120","MEAN_MOTION_DOT":"0.00001407","REV_AT_EPOCH":"4376","TIME_SYSTEM":"UTC","ELEMENT_SET_NO":"999","INCLINATION":"53.2170","OBJECT_NAME":"STARLINK-4546","OBJECT_TYPE":"PAYLOAD","SEMIMAJOR_AXIS":"6917.875","RCS_SIZE":"LARGE"},{"PERIAPSIS":"538.973","DECAY_DATE":null,"MEAN_MOTION_DDOT":"0.0000000000000","CLASSIFICATION_TYPE":"U","CENTER_NAME":"EARTH","BSTAR":"0.00001460900000","REF_FRAME":"TEME","FILE":"3911388","MEAN_MOTION":"15.08837470","NORAD_CAT_ID":"53423","EPOCH":"2023-05-18T18:01:46.903584","COUNTRY_CODE":"US","ECCENTRICITY":"0.00011280","APOAPSIS":"540.533","ARG_OF_PERICENTER":"85.1597","LAUNCH_DATE":"2022-08-10","TLE_LINE1":"1 53423U 22097AM  23138.75123731 -.00000055  00000-0  14609-4 0  9998","TLE_LINE2":"2 53423  53.2174  39.7449 0001128  85.1597 274.9524 15.08837470 43748","MEAN_ELEMENT_THEORY":"SGP4","GP_ID":"232114878","PERIOD":"95.438","RA_OF_ASC_NODE":"39.7449","SITE":"AFETR","EPHEMERIS_TYPE":"0","OBJECT_TYPE":"PAYLOAD","SEMIMAJOR_AXIS":"6917.888","OBJECT_NAME":"STARLINK-4539","RCS_SIZE":"LARGE","ELEMENT_SET_NO":"999","INCLINATION":"53.2174","TIME_SYSTEM":"UTC","REV_AT_EPOCH":"4374","MEAN_MOTION_DOT":"-0.00000055","OBJECT_ID":"2022-097AM","MEAN_ANOMALY":"274.9524"},{"PERIAPSIS":"538.896","DECAY_DATE":null,"MEAN_MOTION_DDOT":"0.0000000000000","CLASSIFICATION_TYPE":"U","CENTER_NAME":"EARTH","REF_FRAME":"TEME","BSTAR":"0.00006779700000","FILE":"3911388","MEAN_MOTION":"15.08844153","NORAD_CAT_ID":"53424","EPOCH":"2023-05-18T17:33:54.280800","ECCENTRICITY":"0.00012090","COUNTRY_CODE":"US","APOAPSIS":"540.569","ARG_OF_PERICENTER":"83.8039","LAUNCH_DATE":"2022-08-10","TLE_LINE2":"2 53424  53.2187  39.8253 0001209  83.8039 276.3091 15.08844153 43766","TLE_LINE1":"1 53424U 22097AN  23138.73187825  .00000791  00000-0  67797-4 0  9993","MEAN_ELEMENT_THEORY":"SGP4","GP_ID":"232115128","PERIOD":"95.437","RA_OF_ASC_NODE":"39.8253","SITE":"AFETR","EPHEMERIS_TYPE":"0","OBJECT_TYPE":"PAYLOAD","SEMIMAJOR_AXIS":"6917.868","OBJECT_NAME":"STARLINK-4532","RCS_SIZE":"LARGE","ELEMENT_SET_NO":"999","INCLINATION":"53.2187","TIME_SYSTEM":"UTC","REV_AT_EPOCH":"4376","MEAN_MOTION_DOT":"0.00000791","OBJECT_ID":"2022-097AN","MEAN_ANOMALY":"276.3091"},{"REV_AT_EPOCH":"4364","MEAN_MOTION_DOT":"0.00002234","OBJECT_ID":"2022-097AP","MEAN_ANOMALY":"283.1635","SEMIMAJOR_AXIS":"6917.873","OBJECT_TYPE":"PAYLOAD","OBJECT_NAME":"STARLINK-4531","RCS_SIZE":"LARGE","INCLINATION":"53.2169","ELEMENT_SET_NO":"999","TIME_SYSTEM":"UTC","ARG_OF_PERICENTER":"76.9502","APOAPSIS":"540.633","LAUNCH_DATE":"2022-08-10","TLE_LINE2":"2 53425  53.2169  42.4496 0001293  76.9502 283.1635 15.08842343 43643","TLE_LINE1":"1 53425U 22097AP  23138.14675857  .00002234  00000-0  15841-3 0  9992","GP_ID":"232084651","MEAN_ELEMENT_THEORY":"SGP4","RA_OF_ASC_NODE":"42.4496","PERIOD":"95.437","EPHEMERIS_TYPE":"0","SITE":"AFETR","DECAY_DATE":null,"PERIAPSIS":"538.844","MEAN_MOTION_DDOT":"0.0000000000000","CLASSIFICATION_TYPE":"U","BSTAR":"0.00015841000000","REF_FRAME":"TEME","CENTER_NAME":"EARTH","MEAN_MOTION":"15.08842343","FILE":"3911221","EPOCH":"2023-05-18T03:31:19.940448","NORAD_CAT_ID":"53425","COUNTRY_CODE":"US","ECCENTRICITY":"0.00012930"},{"MEAN_MOTION_DOT":"0.00000942","OBJECT_ID":"2022-097AQ","MEAN_ANOMALY":"261.2662","REV_AT_EPOCH":"4391","ELEMENT_SET_NO":"999","INCLINATION":"53.2191","TIME_SYSTEM":"UTC","OBJECT_TYPE":"PAYLOAD","SEMIMAJOR_AXIS":"6917.878","OBJECT_NAME":"STARLINK-4558","RCS_SIZE":"LARGE","TLE_LINE2":"2 53426  53.2191  29.4767 0001318  98.8479 261.2662 15.08840902 43915","TLE_LINE1":"1 53426U 22097AQ  23138.84321541  .00000942  00000-0  77295-4 0  9994","MEAN_ELEMENT_THEORY":"SGP4","GP_ID":"232116130","PERIOD":"95.437","RA_OF_ASC_NODE":"29.4767","SITE":"AFETR","EPHEMERIS_TYPE":"0","APOAPSIS":"540.654","ARG_OF_PERICENTER":"98.8479","LAUNCH_DATE":"2022-08-10","FILE":"3911388","MEAN_MOTION":"15.08840902","NORAD_CAT_ID":"53426","EPOCH":"2023-05-18T20:14:13.811424","ECCENTRICITY":"0.00013180","COUNTRY_CODE":"US","PERIAPSIS":"538.831","DECAY_DATE":null,"MEAN_MOTION_DDOT":"0.0000000000000","CLASSIFICATION_TYPE":"U","CENTER_NAME":"EARTH","REF_FRAME":"TEME","BSTAR":"0.00007729500000"}];
